STARLINK-32622          
1 61927U 24207R   26068.93214615  .00029567  00000+0  10789-2 0  9998
2 61927  42.9991 279.9830 0000895 273.3347  86.7402 15.27602488 74764
HERMES-3                
1 63835U 25052BR  26068.93751242  .00020316  00000+0  69958-3 0  9995
2 63835  97.3987 324.6131 0007993 112.9583 247.2502 15.30039785 54863
